SL-16 R/B               
1 22803U 93059B   26079.48757688  .00000222  00000+0  13373-3 0  9993
2 22803  70.9931 348.3574 0017900 200.8376 159.2020 14.17234049681068
ARIANE 40 R/B           
1 22830U 93061H   26079.45245285  .00000162  00000+0  75041-4 0  9992
2 22830  98.4895 148.1267 0009646 249.4484 110.5666 14.32866129695646
COSMOS 2278             
1 23087U 94023A   26079.48914115 -.00000198  00000+0 -78527-4 0  9997
2 23087  71.0539 152.5058 0008768 354.9351   5.1681 14.14378365646337
SL-16 R/B               
1 23088U 94023B   26079.60146706  .00000073  00000+0  62192-4 0  9996
2 23088  70.9995  47.9691 0005496 275.0655  84.9840 14.15010371647634
SL-16 R/B               
1 23343U 94074B   26079.33506384  .00000378  00000+0  57225-4 0  9997
2 23343  97.7094 109.7212 0006628 173.9277 196.5732 14.79419430688820
SL-16 R/B               
1 23405U 94077B   26079.43750667  .00000290  00000+0  17257-3 0  9998
2 23405  70.9848 329.8795 0002459 200.1958 159.9067 14.15566302617756
ARIANE 40+ R/B          
1 23561U 95021B   26079.43984918  .00000229  00000+0  86752-4 0  9998
2 23561  98.4477 150.7758 0007937 108.5442 262.0067 14.39779567620796
SL-16 R/B               
1 23705U 95058B   26079.51567385  .00000007  00000+0  27837-4 0  9995
2 23705  71.0221 157.5280 0010270 105.8264 254.3992 14.15500792569385
SL-16 R/B               
1 24298U 96051B   26079.50589006  .00000100  00000+0  80578-4 0  9995
2 24298  70.7598 152.3468 0014163 131.0407 229.1940 14.12418531523178
ORBVIEW 2 (SEASTAR)     
1 24883U 97037A   26079.43078473  .00000218  00000+0  91941-4 0  9999
2 24883  98.8584 244.0281 0002763  49.2064 310.9360 14.35502095510016
SL-16 R/B               
1 25400U 98043G   26079.39641457  .00000041  00000+0  36247-4 0  9998
2 25400  98.8273  32.8368 0009653 349.8634  10.2349 14.26052070440510
SL-16 R/B               
1 25407U 98045B   26079.52128619  .00000044  00000+0  46371-4 0  9994
2 25407  71.0120 158.7973 0007491 350.8006   9.2978 14.16195353428630
ISS (ZARYA)             
1 25544U 98067A   26079.29132166  .00008293  00000+0  16183-3 0  9997
2 25544  51.6345  19.9496 0006354 211.1385 148.9228 15.48390544557973
CZ-4B R/B               
1 25732U 99025C   26079.55179545  .00000041  00000+0  40917-4 0  9998
2 25732  98.6604 123.5750 0036238 314.8829 218.0190 14.18267375389706
OKEAN-O                 
1 25860U 99039A   26079.39925698  .00000547  00000+0  78522-4 0  9999
2 25860  97.9419 139.1808 0000973  77.1336 282.9985 14.80351578435971
SL-16 R/B               
1 25861U 99039B   26079.43657727  .00000438  00000+0  62357-4 0  9998
2 25861  97.9943 138.5161 0013946 218.4075 141.6145 14.81745162438455
DELTA 2 R/B             
1 25876U 99041E   26079.48527903  .00000338  00000+0  94075-4 0  9995
2 25876  51.7606 258.1565 0502606  20.2742 341.7390 14.11864278364555
