[{"OBJECT_NAME":"SL-16 R/B","OBJECT_ID":"1993-059B","EPOCH":"2026-03-20T11:42:06.642432","MEAN_MOTION":14.17234049,"ECCENTRICITY":0.00179004,"INCLINATION":70.9931,"RA_OF_ASC_NODE":348.3574,"ARG_OF_PERICENTER":200.8376,"MEAN_ANOMALY":159.202,"EPHEMERIS_TYPE":0,"CLASSIFICATION_TYPE":"U","NORAD_CAT_ID":22803,"ELEMENT_SET_NO":999,"REV_AT_EPOCH":68106,"BSTAR":0.00013372584,"MEAN_MOTION_DOT":2.22e-6,"MEAN_MOTION_DDOT":0},{"OBJECT_NAME":"ARIANE 40 R/B","OBJECT_ID":"1993-061H","EPOCH":"2026-03-20T10:51:31.926240","MEAN_MOTION":14.32866129,"ECCENTRICITY":0.00096467,"INCLINATION":98.4895,"RA_OF_ASC_NODE":148.1267,"ARG_OF_PERICENTER":249.4484,"MEAN_ANOMALY":110.5666,"EPHEMERIS_TYPE":0,"CLASSIFICATION_TYPE":"U","NORAD_CAT_ID":22830,"ELEMENT_SET_NO":999,"REV_AT_EPOCH":69564,"BSTAR":7.5040743e-5,"MEAN_MOTION_DOT":1.62e-6,"MEAN_MOTION_DDOT":0},{"OBJECT_NAME":"COSMOS 2278","OBJECT_ID":"1994-023A","EPOCH":"2026-03-20T11:44:21.795360","MEAN_MOTION":14.14378365,"ECCENTRICITY":0.00087684,"INCLINATION":71.0539,"RA_OF_ASC_NODE":152.5058,"ARG_OF_PERICENTER":354.9351,"MEAN_ANOMALY":5.1681,"EPHEMERIS_TYPE":0,"CLASSIFICATION_TYPE":"U","NORAD_CAT_ID":23087,"ELEMENT_SET_NO":999,"REV_AT_EPOCH":64633,"BSTAR":-7.8526664e-5,"MEAN_MOTION_DOT":-1.98e-6,"MEAN_MOTION_DDOT":0},{"OBJECT_NAME":"SL-16 R/B","OBJECT_ID":"1994-023B","EPOCH":"2026-03-20T14:26:06.753984","MEAN_MOTION":14.15010371,"ECCENTRICITY":0.00054964,"INCLINATION":70.9995,"RA_OF_ASC_NODE":47.9691,"ARG_OF_PERICENTER":275.0655,"MEAN_ANOMALY":84.984,"EPHEMERIS_TYPE":0,"CLASSIFICATION_TYPE":"U","NORAD_CAT_ID":23088,"ELEMENT_SET_NO":999,"REV_AT_EPOCH":64763,"BSTAR":6.2192014e-5,"MEAN_MOTION_DOT":7.3e-7,"MEAN_MOTION_DDOT":0},{"OBJECT_NAME":"SL-16 R/B","OBJECT_ID":"1994-074B","EPOCH":"2026-03-20T08:02:29.515776","MEAN_MOTION":14.7941943,"ECCENTRICITY":0.0006628,"INCLINATION":97.7094,"RA_OF_ASC_NODE":109.7212,"ARG_OF_PERICENTER":173.9277,"MEAN_ANOMALY":196.5732,"EPHEMERIS_TYPE":0,"CLASSIFICATION_TYPE":"U","NORAD_CAT_ID":23343,"ELEMENT_SET_NO":999,"REV_AT_EPOCH":68882,"BSTAR":5.7225e-5,"MEAN_MOTION_DOT":3.78e-6,"MEAN_MOTION_DDOT":0},{"OBJECT_NAME":"SL-16 R/B","OBJECT_ID":"1994-077B","EPOCH":"2026-03-20T10:30:00.576288","MEAN_MOTION":14.15566302,"ECCENTRICITY":0.00024591,"INCLINATION":70.9848,"RA_OF_ASC_NODE":329.8795,"ARG_OF_PERICENTER":200.1958,"MEAN_ANOMALY":159.9067,"EPHEMERIS_TYPE":0,"CLASSIFICATION_TYPE":"U","NORAD_CAT_ID":23405,"ELEMENT_SET_NO":999,"REV_AT_EPOCH":61775,"BSTAR":0.00017256779,"MEAN_MOTION_DOT":2.9e-6,"MEAN_MOTION_DDOT":0},{"OBJECT_NAME":"ARIANE 40+ R/B","OBJECT_ID":"1995-021B","EPOCH":"2026-03-20T10:33:22.969152","MEAN_MOTION":14.39779567,"ECCENTRICITY":0.00079374,"INCLINATION":98.4477,"RA_OF_ASC_NODE":150.7758,"ARG_OF_PERICENTER":108.5442,"MEAN_ANOMALY":262.0067,"EPHEMERIS_TYPE":0,"CLASSIFICATION_TYPE":"U","NORAD_CAT_ID":23561,"ELEMENT_SET_NO":999,"REV_AT_EPOCH":62079,"BSTAR":8.6751902e-5,"MEAN_MOTION_DOT":2.29e-6,"MEAN_MOTION_DDOT":0},{"OBJECT_NAME":"SL-16 R/B","OBJECT_ID":"1995-058B","EPOCH":"2026-03-20T12:22:34.220640","MEAN_MOTION":14.15500792,"ECCENTRICITY":0.00102709,"INCLINATION":71.0221,"RA_OF_ASC_NODE":157.528,"ARG_OF_PERICENTER":105.8264,"MEAN_ANOMALY":254.3992,"EPHEMERIS_TYPE":0,"CLASSIFICATION_TYPE":"U","NORAD_CAT_ID":23705,"ELEMENT_SET_NO":999,"REV_AT_EPOCH":56938,"BSTAR":2.7837427e-5,"MEAN_MOTION_DOT":7.0e-8,"MEAN_MOTION_DDOT":0},{"OBJECT_NAME":"SL-16 R/B","OBJECT_ID":"1996-051B","EPOCH":"2026-03-20T12:08:28.901184","MEAN_MOTION":14.12418531,"ECCENTRICITY":0.00141638,"INCLINATION":70.7598,"RA_OF_ASC_NODE":152.3468,"ARG_OF_PERICENTER":131.0407,"MEAN_ANOMALY":229.194,"EPHEMERIS_TYPE":0,"CLASSIFICATION_TYPE":"U","NORAD_CAT_ID":24298,"ELEMENT_SET_NO":999,"REV_AT_EPOCH":52317,"BSTAR":8.0577666e-5,"MEAN_MOTION_DOT":1.0e-6,"MEAN_MOTION_DDOT":0},{"OBJECT_NAME":"ORBVIEW 2 (SEASTAR)","OBJECT_ID":"1997-037A","EPOCH":"2026-03-20T10:20:19.800672","MEAN_MOTION":14.35502095,"ECCENTRICITY":0.00027631,"INCLINATION":98.8584,"RA_OF_ASC_NODE":244.0281,"ARG_OF_PERICENTER":49.2064,"MEAN_ANOMALY":310.936,"EPHEMERIS_TYPE":0,"CLASSIFICATION_TYPE":"U","NORAD_CAT_ID":24883,"ELEMENT_SET_NO":999,"REV_AT_EPOCH":51001,"BSTAR":9.1940986e-5,"MEAN_MOTION_DOT":2.18e-6,"MEAN_MOTION_DDOT":0},{"OBJECT_NAME":"SL-16 R/B","OBJECT_ID":"1998-043G","EPOCH":"2026-03-20T09:30:50.218848","MEAN_MOTION":14.2605207,"ECCENTRICITY":0.00096534,"INCLINATION":98.8273,"RA_OF_ASC_NODE":32.8368,"ARG_OF_PERICENTER":349.8634,"MEAN_ANOMALY":10.2349,"EPHEMERIS_TYPE":0,"CLASSIFICATION_TYPE":"U","NORAD_CAT_ID":25400,"ELEMENT_SET_NO":999,"REV_AT_EPOCH":44051,"BSTAR":3.6246868e-5,"MEAN_MOTION_DOT":4.1e-7,"MEAN_MOTION_DDOT":0},{"OBJECT_NAME":"SL-16 R/B","OBJECT_ID":"1998-045B","EPOCH":"2026-03-20T12:30:39.126816","MEAN_MOTION":14.16195353,"ECCENTRICITY":0.00074915,"INCLINATION":71.012,"RA_OF_ASC_NODE":158.7973,"ARG_OF_PERICENTER":350.8006,"MEAN_ANOMALY":9.2978,"EPHEMERIS_TYPE":0,"CLASSIFICATION_TYPE":"U","NORAD_CAT_ID":25407,"ELEMENT_SET_NO":999,"REV_AT_EPOCH":42863,"BSTAR":4.6370989e-5,"MEAN_MOTION_DOT":4.4e-7,"MEAN_MOTION_DDOT":0},{"OBJECT_NAME":"ISS (ZARYA)","OBJECT_ID":"1998-067A","EPOCH":"2026-03-20T06:59:30.191424","MEAN_MOTION":15.48390544,"ECCENTRICITY":0.00063545,"INCLINATION":51.6345,"RA_OF_ASC_NODE":19.9496,"ARG_OF_PERICENTER":211.1385,"MEAN_ANOMALY":148.9228,"EPHEMERIS_TYPE":0,"CLASSIFICATION_TYPE":"U","NORAD_CAT_ID":25544,"ELEMENT_SET_NO":999,"REV_AT_EPOCH":55797,"BSTAR":0.00016183163,"MEAN_MOTION_DOT":8.293e-5,"MEAN_MOTION_DDOT":0},{"OBJECT_NAME":"CZ-4B R/B","OBJECT_ID":"1999-025C","EPOCH":"2026-03-20T13:14:35.126880","MEAN_MOTION":14.18267375,"ECCENTRICITY":0.0036238,"INCLINATION":98.6604,"RA_OF_ASC_NODE":123.575,"ARG_OF_PERICENTER":314.8829,"MEAN_ANOMALY":218.019,"EPHEMERIS_TYPE":0,"CLASSIFICATION_TYPE":"U","NORAD_CAT_ID":25732,"ELEMENT_SET_NO":999,"REV_AT_EPOCH":38970,"BSTAR":4.0917385e-5,"MEAN_MOTION_DOT":4.1e-7,"MEAN_MOTION_DDOT":0},{"OBJECT_NAME":"OKEAN-O","OBJECT_ID":"1999-039A","EPOCH":"2026-03-20T09:34:55.803072","MEAN_MOTION":14.80351578,"ECCENTRICITY":9.736e-5,"INCLINATION":97.9419,"RA_OF_ASC_NODE":139.1808,"ARG_OF_PERICENTER":77.1336,"MEAN_ANOMALY":282.9985,"EPHEMERIS_TYPE":0,"CLASSIFICATION_TYPE":"U","NORAD_CAT_ID":25860,"ELEMENT_SET_NO":999,"REV_AT_EPOCH":43597,"BSTAR":7.8521644e-5,"MEAN_MOTION_DOT":5.47e-6,"MEAN_MOTION_DDOT":0},{"OBJECT_NAME":"SL-16 R/B","OBJECT_ID":"1999-039B","EPOCH":"2026-03-20T10:28:40.276128","MEAN_MOTION":14.81745162,"ECCENTRICITY":0.00139463,"INCLINATION":97.9943,"RA_OF_ASC_NODE":138.5161,"ARG_OF_PERICENTER":218.4075,"MEAN_ANOMALY":141.6145,"EPHEMERIS_TYPE":0,"CLASSIFICATION_TYPE":"U","NORAD_CAT_ID":25861,"ELEMENT_SET_NO":999,"REV_AT_EPOCH":43845,"BSTAR":6.235682e-5,"MEAN_MOTION_DOT":4.38e-6,"MEAN_MOTION_DDOT":0},{"OBJECT_NAME":"DELTA 2 R/B","OBJECT_ID":"1999-041E","EPOCH":"2026-03-20T11:38:48.108192","MEAN_MOTION":14.11864278,"ECCENTRICITY":0.05026068,"INCLINATION":51.7606,"RA_OF_ASC_NODE":258.1565,"ARG_OF_PERICENTER":20.2742,"MEAN_ANOMALY":341.739,"EPHEMERIS_TYPE":0,"CLASSIFICATION_TYPE":"U","NORAD_CAT_ID":25876,"ELEMENT_SET_NO":999,"REV_AT_EPOCH":36455,"BSTAR":9.4075483e-5,"MEAN_MOTION_DOT":3.38e-6,"MEAN_MOTION_DDOT":0}]
